[{"OBJECT_NAME":"DONGPO 10","OBJECT_ID":"2022-167H","EPOCH":"2026-03-09T22:44:56.137344","MEAN_MOTION":15.322785,"ECCENTRICITY":0.00061655,"INCLINATION":97.685,"RA_OF_ASC_NODE":235.0962,"ARG_OF_PERICENTER":106.9526,"MEAN_ANOMALY":253.2392,"EPHEMERIS_TYPE":0,"CLASSIFICATION_TYPE":"U","NORAD_CAT_ID":54689,"ELEMENT_SET_NO":999,"REV_AT_EPOCH":18015,"BSTAR":0.00049390523,"MEAN_MOTION_DOT":0.00015333,"MEAN_MOTION_DDOT":0},{"OBJECT_NAME":"STARLINK-34251","OBJECT_ID":"2025-117C","EPOCH":"2026-03-09T05:45:20.714112","MEAN_MOTION":15.30197405,"ECCENTRICITY":0.00011356,"INCLINATION":53.1616,"RA_OF_ASC_NODE":41.9196,"ARG_OF_PERICENTER":108.161,"MEAN_ANOMALY":251.9514,"EPHEMERIS_TYPE":0,"CLASSIFICATION_TYPE":"U","NORAD_CAT_ID":64205,"ELEMENT_SET_NO":999,"REV_AT_EPOCH":4445,"BSTAR":0.00085047229,"MEAN_MOTION_DOT":0.00024912,"MEAN_MOTION_DDOT":0}]
